{"type":"FeatureCollection","features":[{"type":"Feature","properties":{"GEOID":"15003","NAME":"Honolulu County"},"geometry":{"type":"MultiPolygon","coordinates":[[[[-158.27755,21.57699],[-158.28158,21.57516],[-158.27472,21.57212],[-158.2719,21.57015],[-158.25638,21.55933],[-158.25067,21.55737],[-158.23431,21.54006],[-158.23153,21.53718],[-158.22978,21.53433],[-158.22907,21.52504],[-158.22962,21.51689],[-158.23002,21.49532],[-158.23114,21.48268],[-158.22526,21.47825],[-158.22171,21.47668],[-158.22038,21.4761],[-158.22035,21.47596],[-158.21811,21.4676],[-158.21339,21.46328],[-158.21444,21.46028],[-158.20873,21.46057],[-158.20566,21.45897],[-158.2037,21.45794],[-158.20302,21.45471],[-158.20281,21.4537],[-158.20027,21.45282],[-158.19936,21.4525],[-158.19892,21.45151],[-158.19769,21.44874],[-158.19615,21.44854],[-158.19235,21.44804],[-158.18985,21.44653],[-158.18986,21.44343],[-158.19148,21.44013],[-158.19034,21.44027],[-158.18828,21.44051],[-158.18265,21.43007],[-158.17966,21.42862],[-158.17963,21.42861],[-158.17963,21.42858],[-158.17963,21.42849],[-158.17936,21.42282],[-158.17783,21.40975],[-158.17805,21.40886],[-158.1792,21.4043],[-158.17843,21.40359],[-158.17295,21.3986],[-158.16204,21.39586],[-158.1577,21.3921],[-158.15225,21.3874],[-158.14972,21.38521],[-158.14821,21.38281],[-158.14818,21.38277],[-158.1478,21.38216],[-158.14626,21.37971],[-158.14113,21.37638],[-158.14075,21.3719],[-158.13811,21.37027],[-158.13647,21.36925],[-158.1357,21.36785],[-158.13233,21.36177],[-158.12981,21.35513],[-158.13033,21.35159],[-158.12986,21.34912],[-158.12826,21.3407],[-158.12693,21.33871],[-158.1263,21.33777],[-158.12555,21.33664],[-158.12383,21.33406],[-158.12367,21.33231],[-158.12356,21.3311],[-158.12351,21.33049],[-158.12336,21.32876],[-158.12319,21.32686],[-158.12309,21.32571],[-158.12223,21.32554],[-158.12051,21.32521],[-158.11817,21.32717],[-158.11631,21.32873],[-158.11622,21.32881],[-158.11341,21.32661],[-158.11284,21.3241],[-158.11507,21.3215],[-158.11824,21.32232],[-158.12051,21.32105],[-158.12024,21.31997],[-158.11856,21.3133],[-158.1127,21.3019],[-158.1083,21.29761],[-158.10289,21.29568],[-158.0982,21.29571],[-158.08601,21.29578],[-158.0856,21.29579],[-158.08408,21.2958],[-158.07944,21.29813],[-158.06798,21.29955],[-158.05025,21.30112],[-158.04435,21.30375],[-158.04433,21.30376],[-158.03251,21.3051],[-158.02756,21.30598],[-158.02749,21.30599],[-158.02719,21.30605],[-158.02163,21.30704],[-158.02134,21.30709],[-158.00932,21.30975],[-158.00551,21.31059],[-157.99025,21.31397],[-157.98152,21.3159],[-157.97831,21.31593],[-157.97047,21.32281],[-157.97024,21.32835],[-157.96969,21.32825],[-157.96524,21.32746],[-157.96073,21.3217],[-157.95188,21.31874],[-157.94893,21.31671],[-157.94813,21.31616],[-157.94802,21.31608],[-157.94718,21.3155],[-157.94837,21.31019],[-157.94932,21.30648],[-157.94718,21.30377],[-157.90673,21.30332],[-157.9055,21.3045],[-157.90464,21.30532],[-157.90126,21.30532],[-157.89941,21.30532],[-157.89323,21.30598],[-157.89,21.3065],[-157.88987,21.30651],[-157.88838,21.30657],[-157.88669,21.30665],[-157.88377,21.30001],[-157.87762,21.30117],[-157.87073,21.2982],[-157.87002,21.29576],[-157.86996,21.29555],[-157.86984,21.29513],[-157.86701,21.29353],[-157.86655,21.29327],[-157.86183,21.29061],[-157.86182,21.29061],[-157.86119,21.29025],[-157.85496,21.28673],[-157.846,21.28168],[-157.8454,21.28164],[-157.83793,21.28116],[-157.8338,21.27785],[-157.82972,21.27662],[-157.82316,21.27144],[-157.82276,21.26497],[-157.8211,21.2606],[-157.8149,21.25611],[-157.81277,21.25602],[-157.81124,21.25596],[-157.81084,21.25589],[-157.8062,21.25504],[-157.80584,21.25512],[-157.79588,21.25716],[-157.79374,21.25556],[-157.79166,21.25554],[-157.79122,21.25553],[-157.7898,21.25984],[-157.78378,21.26315],[-157.77994,21.26525],[-157.77854,21.26689],[-157.77679,21.26894],[-157.77545,21.2705],[-157.7644,21.2752],[-157.75951,21.2758],[-157.7587,21.27396],[-157.75585,21.27276],[-157.75453,21.2761],[-157.74361,21.27972],[-157.7382,21.27969],[-157.73459,21.27967],[-157.73217,21.28201],[-157.72691,21.28084],[-157.72237,21.2814],[-157.71941,21.28436],[-157.71909,21.28414],[-157.71705,21.28276],[-157.71548,21.28211],[-157.71266,21.28094],[-157.71258,21.28086],[-157.71236,21.28061],[-157.70947,21.27747],[-157.70901,21.27198],[-157.70873,21.26912],[-157.71094,21.26497],[-157.71152,21.26198],[-157.70928,21.25972],[-157.70643,21.25954],[-157.70619,21.25952],[-157.69872,21.26068],[-157.69152,21.26428],[-157.69595,21.26723],[-157.69595,21.27166],[-157.69334,21.27299],[-157.68932,21.26897],[-157.68577,21.27576],[-157.67694,21.28074],[-157.67376,21.28529],[-157.66981,21.28539],[-157.66915,21.28653],[-157.66851,21.28763],[-157.65799,21.29332],[-157.65466,21.29796],[-157.65103,21.29882],[-157.64893,21.30472],[-157.64905,21.31057],[-157.64928,21.3106],[-157.64983,21.31068],[-157.65011,21.31072],[-157.65226,21.31102],[-157.65325,21.3109],[-157.65935,21.31019],[-157.66008,21.31324],[-157.66141,21.31451],[-157.66339,21.31639],[-157.66527,21.31577],[-157.66588,21.31557],[-157.66613,21.31576],[-157.67019,21.31875],[-157.67783,21.32438],[-157.68265,21.32626],[-157.68539,21.32733],[-157.68837,21.3285],[-157.69082,21.33048],[-157.6938,21.3329],[-157.69455,21.33404],[-157.69736,21.33833],[-157.69942,21.34161],[-157.70327,21.34776],[-157.70343,21.34801],[-157.70662,21.35311],[-157.70903,21.36033],[-157.70872,21.36906],[-157.70611,21.37593],[-157.70589,21.38014],[-157.70589,21.3803],[-157.7089,21.3833],[-157.71186,21.38876],[-157.71198,21.38898],[-157.71316,21.39031],[-157.71586,21.39333],[-157.72067,21.39549],[-157.72123,21.39573],[-157.72576,21.39776],[-157.72718,21.3984],[-157.73393,21.40055],[-157.73697,21.40299],[-157.7386,21.4043],[-157.7403,21.40772],[-157.74328,21.41372],[-157.74329,21.41375],[-157.74448,21.42236],[-157.74151,21.42556],[-157.739,21.42425],[-157.73738,21.42843],[-157.73583,21.4324],[-157.73641,21.43868],[-157.73604,21.44193],[-157.73567,21.44524],[-157.7295,21.44675],[-157.72576,21.44997],[-157.72283,21.45581],[-157.72251,21.45922],[-157.72998,21.46028],[-157.7391,21.45562],[-157.73985,21.45392],[-157.74258,21.45368],[-157.74589,21.45339],[-157.76319,21.4595],[-157.76378,21.46127],[-157.76438,21.46214],[-157.76554,21.4615],[-157.76824,21.45632],[-157.77275,21.45694],[-157.77403,21.45378],[-157.77731,21.45182],[-157.77828,21.44649],[-157.7768,21.44325],[-157.77274,21.44308],[-157.75803,21.43685],[-157.7575,21.43474],[-157.76039,21.43275],[-157.7613,21.42866],[-157.76135,21.42843],[-157.76368,21.42806],[-157.76553,21.4245],[-157.76412,21.42141],[-157.76654,21.41624],[-157.76929,21.41386],[-157.76996,21.41328],[-157.77136,21.41303],[-157.77804,21.41182],[-157.78008,21.41196],[-157.78038,21.41199],[-157.78379,21.41223],[-157.78417,21.41226],[-157.7872,21.41371],[-157.78835,21.41797],[-157.78839,21.41811],[-157.78835,21.4186],[-157.78807,21.42241],[-157.7891,21.4253],[-157.79229,21.42885],[-157.79265,21.42884],[-157.79508,21.42879],[-157.79539,21.42878],[-157.79674,21.4253],[-157.8016,21.42722],[-157.8059,21.4301],[-157.8056,21.43217],[-157.80526,21.43455],[-157.80517,21.43515],[-157.8072,21.43981],[-157.80854,21.44289],[-157.81119,21.44451],[-157.81123,21.44454],[-157.8129,21.44765],[-157.81454,21.45068],[-157.81659,21.45464],[-157.8223,21.45252],[-157.82489,21.45538],[-157.83008,21.45798],[-157.83374,21.4624],[-157.83422,21.45825],[-157.83773,21.45684],[-157.83809,21.4567],[-157.84099,21.45948],[-157.8426,21.46312],[-157.84284,21.46555],[-157.84432,21.46999],[-157.84419,21.47035],[-157.84231,21.47553],[-157.84191,21.47861],[-157.84166,21.48045],[-157.84287,21.48456],[-157.84712,21.48501],[-157.84926,21.48745],[-157.84703,21.49224],[-157.84926,21.49452],[-157.85263,21.49997],[-157.85102,21.50505],[-157.85062,21.50629],[-157.84854,21.5058],[-157.84522,21.50713],[-157.83483,21.50897],[-157.83568,21.51693],[-157.8345,21.52692],[-157.8368,21.53193],[-157.83847,21.53522],[-157.84189,21.54195],[-157.84587,21.54446],[-157.84664,21.54494],[-157.84668,21.54983],[-157.85073,21.55491],[-157.85486,21.55752],[-157.86385,21.56017],[-157.86414,21.55993],[-157.86887,21.55596],[-157.86891,21.55595],[-157.87347,21.55498],[-157.87693,21.5574],[-157.87505,21.56297],[-157.87506,21.56365],[-157.87519,21.57306],[-157.87735,21.57528],[-157.88269,21.57707],[-157.88673,21.58061],[-157.88927,21.58987],[-157.89513,21.59449],[-157.89642,21.59804],[-157.89809,21.60262],[-157.90157,21.60526],[-157.90572,21.60695],[-157.90771,21.60776],[-157.91265,21.61457],[-157.91265,21.61507],[-157.91267,21.61712],[-157.91272,21.62097],[-157.91283,21.62106],[-157.91937,21.62627],[-157.91961,21.6269],[-157.92075,21.62984],[-157.91908,21.63298],[-157.91794,21.63511],[-157.91818,21.64218],[-157.91678,21.64744],[-157.91324,21.64808],[-157.91414,21.64969],[-157.91985,21.64881],[-157.92459,21.65118],[-157.92818,21.6538],[-157.92779,21.65536],[-157.92722,21.65764],[-157.92626,21.66162],[-157.93221,21.66338],[-157.9353,21.6667],[-157.93601,21.67134],[-157.93483,21.67245],[-157.93311,21.67406],[-157.93791,21.67686],[-157.94124,21.6815],[-157.94717,21.68957],[-157.94908,21.69298],[-157.9492,21.6931],[-157.95788,21.70226],[-157.96201,21.7035],[-157.96335,21.70627],[-157.96738,21.71043],[-157.97546,21.71087],[-157.97783,21.70921],[-157.98073,21.7111],[-157.98349,21.71073],[-157.98889,21.70568],[-157.98937,21.70569],[-157.99234,21.70579],[-157.99717,21.7054],[-158.00018,21.70159],[-158.00375,21.70071],[-158.00925,21.70034],[-158.01367,21.69834],[-158.02205,21.6932],[-158.02356,21.69226],[-158.02775,21.68967],[-158.03132,21.68635],[-158.03231,21.68277],[-158.0371,21.68125],[-158.04006,21.67525],[-158.04225,21.6736],[-158.04697,21.67006],[-158.05739,21.66006],[-158.05908,21.65844],[-158.06226,21.65538],[-158.06388,21.6435],[-158.06293,21.64151],[-158.06377,21.64056],[-158.06507,21.63908],[-158.06816,21.63869],[-158.07163,21.63338],[-158.08004,21.6245],[-158.08599,21.62185],[-158.08583,21.61837],[-158.0949,21.61322],[-158.0998,21.60871],[-158.10332,21.60545],[-158.10669,21.60302],[-158.10381,21.60064],[-158.10381,21.59644],[-158.10523,21.59651],[-158.10672,21.59658],[-158.11023,21.59357],[-158.11284,21.58981],[-158.11484,21.59201],[-158.118,21.59024],[-158.12115,21.58584],[-158.12282,21.58351],[-158.13194,21.58238],[-158.13403,21.58339],[-158.13638,21.58453],[-158.15434,21.58085],[-158.15827,21.58099],[-158.16371,21.58119],[-158.16751,21.57964],[-158.17226,21.58185],[-158.17687,21.58066],[-158.18395,21.58171],[-158.1914,21.58267],[-158.19517,21.58255],[-158.19865,21.58243],[-158.20173,21.58232],[-158.2091,21.58207],[-158.21579,21.58014],[-158.216,21.58008],[-158.22788,21.58008],[-158.23477,21.58185],[-158.25949,21.57854],[-158.27755,21.57699]]],[[[-157.65983,21.32857],[-157.65959,21.32702],[-157.6565,21.32591],[-157.65408,21.32599],[-157.65388,21.32835],[-157.65657,21.33168],[-157.65888,21.33047],[-157.65983,21.32857]]],[[[-157.79087,21.43468],[-157.79053,21.43306],[-157.79043,21.43159],[-157.78803,21.43115],[-157.78674,21.43318],[-157.78721,21.43582],[-157.78882,21.43614],[-157.78974,21.43503],[-157.79087,21.43468]]]]}},{"type":"Feature","properties":{"GEOID":"15005","NAME":"Kalawao County"},"geometry":{"type":"Polygon","coordinates":[[[-157.01459,21.18352],[-157.01461,21.18235],[-157.01195,21.1816],[-157.01094,21.18081],[-157.00795,21.18003],[-157.00613,21.17914],[-157.00541,21.17797],[-157.00347,21.1771],[-157.00286,21.17612],[-157.00269,21.17693],[-157.00412,21.17851],[-157,21.17785],[-156.99545,21.17827],[-156.99293,21.17769],[-156.98877,21.17852],[-156.98667,21.17854],[-156.98402,21.17919],[-156.9808,21.1779],[-156.97933,21.1781],[-156.97745,21.17688],[-156.9739,21.17537],[-156.97371,21.17376],[-156.97142,21.1689],[-156.97163,21.16566],[-156.96963,21.16414],[-156.96922,21.16365],[-156.96872,21.16326],[-156.96819,21.16264],[-156.96752,21.1619],[-156.96751,21.16209],[-156.96562,21.16051],[-156.96505,21.15985],[-156.96452,21.15935],[-156.96251,21.15937],[-156.96171,21.16054],[-156.95985,21.16153],[-156.9626,21.1623],[-156.96233,21.16326],[-156.96475,21.16567],[-156.96367,21.16645],[-156.9626,21.17109],[-156.96301,21.17204],[-156.96249,21.17522],[-156.96164,21.17606],[-156.96307,21.179],[-156.963,21.18002],[-156.96067,21.17936],[-156.95871,21.17455],[-156.95933,21.17215],[-156.95874,21.16922],[-156.95917,21.16703],[-156.95863,21.16336],[-156.95893,21.16095],[-156.9576,21.15804],[-156.95612,21.1567],[-156.95104,21.15346],[-156.94766,21.1548],[-156.94794,21.1558],[-156.94667,21.15698],[-156.94416,21.15767],[-156.94499,21.15848],[-156.94213,21.16017],[-156.94157,21.15963],[-156.94163,21.15621],[-156.93918,21.15545],[-156.93694,21.15335],[-156.9361,21.15112],[-156.93508,21.15078],[-156.93468,21.14936],[-156.92988,21.14152],[-156.92984,21.13962],[-156.9288,21.13821],[-156.92532,21.13586],[-156.92258,21.1321],[-156.91968,21.13007],[-156.91807,21.12948],[-156.91494,21.12967],[-156.90024,21.13162],[-156.90166,21.13328],[-156.9008,21.13908],[-156.89894,21.14083],[-156.89921,21.1421],[-156.90049,21.14297],[-156.90028,21.14542],[-156.89888,21.1476],[-156.89636,21.14812],[-156.89603,21.14899],[-156.89832,21.14836],[-156.90147,21.14879],[-156.90552,21.15184],[-156.90695,21.15162],[-156.90704,21.1526],[-156.90864,21.15415],[-156.90883,21.15542],[-156.9126,21.15815],[-156.91333,21.15973],[-156.9171,21.16371],[-156.92081,21.16283],[-156.91809,21.16857],[-156.91888,21.16791],[-156.92501,21.16938],[-156.92769,21.17173],[-156.93384,21.16945],[-156.9384,21.17176],[-156.94391,21.17295],[-156.9437,21.17617],[-156.94716,21.17886],[-156.94821,21.18835],[-156.95659,21.20091],[-156.95734,21.2049],[-156.9599,21.20883],[-156.96285,21.21213],[-156.96553,21.2136],[-156.97061,21.21552],[-156.97652,21.21279],[-156.9803,21.20985],[-156.98234,21.2078],[-156.98019,21.20563],[-156.98003,21.2046],[-156.97969,21.20229],[-156.98244,21.20121],[-156.9828,21.19773],[-156.98465,21.18899],[-156.98535,21.18592],[-156.989,21.18219],[-156.99821,21.17919],[-157.0039,21.18088],[-157.00415,21.18095],[-157.00698,21.18165],[-157.01192,21.18287],[-157.01459,21.18352]]]}},{"type":"Feature","properties":{"GEOID":"15007","NAME":"Kauai County"},"geometry":{"type":"MultiPolygon","coordinates":[[[[-159.78794,22.0301],[-159.7867,22.0188],[-159.78078,22.01037],[-159.77417,22.00587],[-159.76573,21.98659],[-159.7594,21.97951],[-159.75018,21.97603],[-159.73658,21.97281],[-159.73286,21.97181],[-159.7175,21.96766],[-159.71562,21.96715],[-159.7126,21.96486],[-159.70779,21.96123],[-159.70201,21.96026],[-159.69262,21.95883],[-159.68968,21.95839],[-159.67436,21.95558],[-159.66871,21.95358],[-159.66675,21.95065],[-159.66567,21.94903],[-159.66079,21.94275],[-159.65293,21.94162],[-159.64995,21.9392],[-159.64977,21.93385],[-159.64776,21.93239],[-159.64563,21.92941],[-159.6431,21.92588],[-159.63812,21.92197],[-159.63821,21.9212],[-159.63841,21.9193],[-159.63623,21.91624],[-159.63374,21.91317],[-159.62934,21.90962],[-159.62848,21.90892],[-159.62211,21.90645],[-159.61682,21.90205],[-159.60814,21.8998],[-159.6077,21.89747],[-159.60726,21.89512],[-159.6048,21.89334],[-159.60328,21.89225],[-159.59741,21.89471],[-159.5968,21.89734],[-159.5975,21.90235],[-159.59751,21.90241],[-159.59442,21.90418],[-159.59027,21.90296],[-159.5899,21.90285],[-159.58771,21.89877],[-159.58349,21.89822],[-159.58354,21.89646],[-159.58094,21.89636],[-159.58028,21.89634],[-159.57452,21.89281],[-159.56981,21.89406],[-159.56099,21.88975],[-159.5518,21.88729],[-159.54443,21.88811],[-159.53648,21.88662],[-159.53178,21.88687],[-159.52692,21.88389],[-159.51968,21.88688],[-159.51221,21.88809],[-159.50882,21.88658],[-159.50551,21.88665],[-159.50275,21.8853],[-159.5014,21.88463],[-159.48827,21.88569],[-159.48726,21.88505],[-159.48267,21.88218],[-159.47534,21.88212],[-159.46907,21.87916],[-159.46179,21.87639],[-159.45279,21.87281],[-159.44487,21.86863],[-159.44109,21.87118],[-159.44049,21.87326],[-159.43779,21.87506],[-159.4369,21.87486],[-159.43396,21.8742],[-159.42952,21.87991],[-159.42717,21.88121],[-159.41883,21.88234],[-159.41797,21.88524],[-159.41697,21.88759],[-159.41667,21.8883],[-159.41026,21.88981],[-159.40462,21.89337],[-159.40378,21.8985],[-159.39688,21.90296],[-159.38954,21.90197],[-159.38774,21.90302],[-159.38724,21.90331],[-159.3903,21.90734],[-159.38859,21.91245],[-159.38527,21.91244],[-159.37988,21.92117],[-159.36789,21.92584],[-159.36652,21.92914],[-159.36203,21.93149],[-159.35509,21.93161],[-159.35412,21.93659],[-159.34676,21.93637],[-159.34655,21.93832],[-159.35018,21.94143],[-159.34762,21.94758],[-159.3504,21.94896],[-159.35746,21.94771],[-159.35754,21.94813],[-159.3586,21.95366],[-159.35232,21.95485],[-159.35189,21.96014],[-159.34833,21.96041],[-159.34776,21.9569],[-159.34498,21.9569],[-159.3402,21.95842],[-159.33578,21.95511],[-159.32988,21.96018],[-159.33009,21.96656],[-159.33151,21.97347],[-159.33349,21.97825],[-159.33383,21.98478],[-159.33194,21.98912],[-159.32941,21.9917],[-159.3306,21.99412],[-159.33511,21.99236],[-159.33507,21.99317],[-159.33487,21.99676],[-159.33256,21.99935],[-159.33373,22.00327],[-159.33559,22.00955],[-159.33779,22.01593],[-159.33859,22.02344],[-159.33684,22.03185],[-159.33449,22.0417],[-159.3351,22.04444],[-159.33518,22.04478],[-159.33546,22.04601],[-159.33271,22.05071],[-159.32853,22.05166],[-159.3216,22.05582],[-159.31951,22.05934],[-159.31828,22.06142],[-159.31631,22.07043],[-159.31663,22.07542],[-159.31507,22.07716],[-159.31378,22.07859],[-159.31087,22.08423],[-159.30501,22.09045],[-159.30487,22.0915],[-159.30479,22.09213],[-159.30479,22.09217],[-159.30389,22.09914],[-159.30109,22.09993],[-159.29663,22.10511],[-159.29463,22.11087],[-159.29672,22.11506],[-159.29339,22.12215],[-159.29301,22.12296],[-159.29272,22.12603],[-159.29253,22.12809],[-159.29233,22.13025],[-159.29316,22.14261],[-159.29321,22.14332],[-159.29328,22.14434],[-159.29637,22.14962],[-159.29766,22.14864],[-159.29774,22.14858],[-159.29898,22.14764],[-159.30156,22.14734],[-159.30279,22.1472],[-159.30605,22.15002],[-159.30635,22.15028],[-159.30607,22.1518],[-159.30577,22.15338],[-159.30568,22.15384],[-159.30551,22.15474],[-159.30509,22.15699],[-159.30501,22.15743],[-159.30279,22.15997],[-159.30652,22.16473],[-159.30849,22.16723],[-159.3126,22.1729],[-159.31125,22.17825],[-159.31229,22.18308],[-159.31561,22.18682],[-159.32253,22.1912],[-159.32846,22.19497],[-159.33178,22.19299],[-159.33345,22.19541],[-159.33131,22.19783],[-159.33158,22.20002],[-159.33567,22.20417],[-159.33996,22.20852],[-159.34977,22.21501],[-159.35428,22.21439],[-159.35721,22.21345],[-159.36828,22.2151],[-159.36956,22.21559],[-159.37552,22.21785],[-159.38217,22.21697],[-159.38336,22.22071],[-159.38292,22.22477],[-159.38973,22.22279],[-159.39087,22.2253],[-159.3956,22.22545],[-159.39799,22.22969],[-159.39866,22.23012],[-159.40104,22.23167],[-159.40226,22.23247],[-159.40247,22.2326],[-159.40297,22.23216],[-159.40554,22.22988],[-159.40674,22.22568],[-159.41387,22.22373],[-159.41499,22.22361],[-159.4176,22.22335],[-159.41972,22.22313],[-159.42424,22.22445],[-159.42467,22.22366],[-159.42503,22.22298],[-159.4259,22.22137],[-159.42638,22.21807],[-159.42896,22.21764],[-159.42899,22.21763],[-159.43171,22.22002],[-159.43494,22.22343],[-159.43874,22.22354],[-159.44443,22.2237],[-159.44912,22.22515],[-159.4543,22.22635],[-159.46083,22.22435],[-159.46426,22.22346],[-159.46509,22.22324],[-159.4675,22.22599],[-159.47093,22.22569],[-159.47249,22.22775],[-159.47594,22.2293],[-159.47971,22.22912],[-159.48081,22.22907],[-159.48473,22.22931],[-159.48563,22.22937],[-159.48794,22.22951],[-159.49118,22.22612],[-159.49219,22.22508],[-159.49768,22.22335],[-159.49853,22.22226],[-159.50092,22.21917],[-159.49865,22.21586],[-159.49786,22.21472],[-159.4977,22.21448],[-159.49745,22.21411],[-159.4984,22.20817],[-159.50295,22.20456],[-159.50339,22.20421],[-159.51048,22.20357],[-159.51076,22.20355],[-159.51557,22.20801],[-159.51835,22.21118],[-159.51781,22.21422],[-159.5224,22.21521],[-159.53059,22.21575],[-159.53246,22.21788],[-159.53904,22.21389],[-159.54165,22.21565],[-159.54181,22.21606],[-159.54258,22.21812],[-159.54392,22.22169],[-159.54549,22.22268],[-159.54902,22.22489],[-159.55349,22.22456],[-159.55805,22.22629],[-159.55901,22.22665],[-159.56612,22.22059],[-159.5697,22.22335],[-159.57242,22.22351],[-159.57383,22.22359],[-159.57728,22.22354],[-159.58106,22.22349],[-159.58707,22.21851],[-159.59661,22.21074],[-159.60516,22.20602],[-159.60604,22.20406],[-159.61731,22.19869],[-159.62321,22.19698],[-159.63057,22.19271],[-159.63388,22.18904],[-159.64332,22.18102],[-159.64861,22.18044],[-159.65273,22.17778],[-159.65837,22.17313],[-159.66596,22.17076],[-159.6712,22.16841],[-159.67642,22.16745],[-159.68967,22.16357],[-159.69056,22.1635],[-159.69852,22.16283],[-159.70308,22.15805],[-159.70553,22.15932],[-159.71302,22.15557],[-159.71776,22.15166],[-159.72207,22.15032],[-159.7279,22.1422],[-159.73054,22.13995],[-159.73252,22.13424],[-159.73333,22.12654],[-159.73822,22.11946],[-159.73843,22.1135],[-159.74073,22.10979],[-159.74155,22.10534],[-159.74395,22.10335],[-159.74525,22.09751],[-159.75095,22.0928],[-159.76555,22.08048],[-159.77111,22.07412],[-159.7784,22.06946],[-159.78375,22.0649],[-159.78297,22.05864],[-159.78462,22.05232],[-159.78386,22.04781],[-159.78649,22.0359],[-159.78794,22.0301]]],[[[-160.10201,22.01846],[-160.10261,22.01655],[-160.10184,22.01572],[-160.1012,22.01572],[-160.09982,22.01492],[-160.09806,22.01484],[-160.09609,22.01484],[-160.09454,22.01556],[-160.093,22.01615],[-160.09171,22.01723],[-160.09046,22.0183],[-160.089,22.01998],[-160.08797,22.02141],[-160.08776,22.02264],[-160.0878,22.02388],[-160.08827,22.02483],[-160.0893,22.02591],[-160.09111,22.02674],[-160.09154,22.02642],[-160.09132,22.02539],[-160.09149,22.02443],[-160.09222,22.02288],[-160.0936,22.02153],[-160.09501,22.02129],[-160.09695,22.02149],[-160.09905,22.02304],[-160.1003,22.02432],[-160.10068,22.02555],[-160.10038,22.02706],[-160.09987,22.02797],[-160.09982,22.02806],[-160.09974,22.02861],[-160.10017,22.02901],[-160.10098,22.02849],[-160.10176,22.02702],[-160.10201,22.02531],[-160.10171,22.02412],[-160.1015,22.02189],[-160.10141,22.02089],[-160.10201,22.01846]]],[[[-160.24518,21.84721],[-160.2465,21.84073],[-160.244,21.84015],[-160.2439,21.83714],[-160.24528,21.83595],[-160.24552,21.83465],[-160.24364,21.83191],[-160.23695,21.80367],[-160.23277,21.79749],[-160.23343,21.79247],[-160.23058,21.79049],[-160.22368,21.79137],[-160.22125,21.78771],[-160.21785,21.78653],[-160.21486,21.78256],[-160.20787,21.78256],[-160.20354,21.77916],[-160.20122,21.7827],[-160.19856,21.78473],[-160.20242,21.78697],[-160.20166,21.78943],[-160.20023,21.79518],[-160.1927,21.80444],[-160.19415,21.80754],[-160.19174,21.81157],[-160.19183,21.81432],[-160.18822,21.8184],[-160.18756,21.8209],[-160.17851,21.83508],[-160.17395,21.83907],[-160.17297,21.84391],[-160.16724,21.85057],[-160.1649,21.85688],[-160.15903,21.86528],[-160.15022,21.86939],[-160.14395,21.87291],[-160.13989,21.8723],[-160.12868,21.87445],[-160.12428,21.87679],[-160.12029,21.87719],[-160.11137,21.88104],[-160.10724,21.87862],[-160.0989,21.88471],[-160.0967,21.88372],[-160.0901,21.88835],[-160.08539,21.88953],[-160.08269,21.89219],[-160.07872,21.89433],[-160.07484,21.89479],[-160.07376,21.89678],[-160.07316,21.90045],[-160.07512,21.90528],[-160.07941,21.91514],[-160.08298,21.92791],[-160.0787,21.94599],[-160.07632,21.95459],[-160.07085,21.95856],[-160.06863,21.96726],[-160.06586,21.97068],[-160.06301,21.97619],[-160.05915,21.97713],[-160.05446,21.97663],[-160.05113,21.97928],[-160.05062,21.98467],[-160.05303,21.99228],[-160.05854,21.99638],[-160.07014,22.0033],[-160.07204,21.99999],[-160.07656,21.99889],[-160.08635,21.99793],[-160.08702,22.00286],[-160.09201,22.0055],[-160.09343,22.0011],[-160.1008,21.99581],[-160.10494,21.99823],[-160.11174,21.9936],[-160.1104,21.9885],[-160.11369,21.98475],[-160.11459,21.97487],[-160.11958,21.96583],[-160.12172,21.959],[-160.12552,21.95371],[-160.13669,21.94577],[-160.15404,21.93872],[-160.16236,21.9385],[-160.16498,21.93298],[-160.16613,21.93243],[-160.17268,21.92925],[-160.17543,21.92791],[-160.187,21.92488],[-160.18874,21.9213],[-160.1916,21.91821],[-160.19611,21.91556],[-160.20253,21.90696],[-160.21061,21.90013],[-160.21798,21.89373],[-160.22535,21.88998],[-160.22891,21.88513],[-160.22939,21.87962],[-160.23271,21.87609],[-160.23319,21.86903],[-160.23295,21.86286],[-160.24056,21.85138],[-160.24518,21.84721]]],[[[-160.54496,21.65339],[-160.54496,21.65233],[-160.54364,21.65052],[-160.54201,21.6497],[-160.54037,21.6492],[-160.53926,21.64921],[-160.53796,21.64942],[-160.53697,21.64964],[-160.53671,21.64996],[-160.53737,21.6503],[-160.53784,21.65037],[-160.5383,21.65078],[-160.53922,21.65116],[-160.53958,21.65179],[-160.54009,21.65269],[-160.54029,21.65304],[-160.54087,21.65362],[-160.54081,21.65414],[-160.54081,21.65519],[-160.54049,21.65627],[-160.53999,21.65676],[-160.5393,21.65728],[-160.5387,21.65762],[-160.5383,21.65797],[-160.5383,21.65842],[-160.53782,21.65906],[-160.53894,21.65973],[-160.54015,21.66019],[-160.54092,21.65913],[-160.54138,21.65862],[-160.54243,21.65676],[-160.54302,21.65519],[-160.54342,21.65443],[-160.54423,21.6539],[-160.54496,21.65339]]]]}},{"type":"Feature","properties":{"GEOID":"15009","NAME":"Maui County"},"geometry":{"type":"MultiPolygon","coordinates":[[[[-156.69742,20.91637],[-156.69663,20.91586],[-156.69435,20.91439],[-156.69133,20.91244],[-156.68813,20.90633],[-156.68512,20.90222],[-156.68554,20.89356],[-156.68566,20.89126],[-156.68538,20.88716],[-156.68635,20.88567],[-156.68752,20.8839],[-156.68926,20.88195],[-156.68665,20.87928],[-156.68306,20.87688],[-156.67984,20.87472],[-156.67872,20.87004],[-156.67833,20.8684],[-156.67357,20.86129],[-156.66768,20.85797],[-156.66573,20.85599],[-156.6645,20.85474],[-156.6537,20.84376],[-156.65279,20.84222],[-156.65089,20.83902],[-156.64961,20.83756],[-156.64655,20.83408],[-156.64052,20.83225],[-156.63961,20.83134],[-156.63738,20.82911],[-156.63046,20.82219],[-156.62768,20.81395],[-156.62293,20.80897],[-156.61837,20.80758],[-156.61309,20.80989],[-156.60814,20.80974],[-156.60522,20.80839],[-156.5995,20.80574],[-156.59138,20.79918],[-156.58368,20.79497],[-156.5665,20.79238],[-156.54383,20.78023],[-156.54366,20.78014],[-156.53768,20.77459],[-156.52597,20.77598],[-156.52167,20.77852],[-156.51956,20.77976],[-156.51538,20.78767],[-156.51087,20.79044],[-156.50618,20.79512],[-156.49971,20.79647],[-156.48947,20.79543],[-156.48852,20.79512],[-156.48457,20.79385],[-156.47754,20.79159],[-156.47392,20.79043],[-156.47293,20.78955],[-156.46404,20.78167],[-156.46126,20.77847],[-156.46055,20.77484],[-156.45967,20.77037],[-156.45971,20.7683],[-156.45998,20.75267],[-156.45896,20.74791],[-156.45638,20.73574],[-156.45564,20.73479],[-156.45289,20.73129],[-156.45104,20.72547],[-156.44823,20.72208],[-156.44773,20.71927],[-156.44693,20.71474],[-156.44632,20.7113],[-156.44778,20.70552],[-156.446,20.70216],[-156.44589,20.70133],[-156.44457,20.69153],[-156.44503,20.6887],[-156.4454,20.6864],[-156.44508,20.67976],[-156.44482,20.66724],[-156.44258,20.66577],[-156.44186,20.66009],[-156.44245,20.65877],[-156.44354,20.65632],[-156.44367,20.65602],[-156.44225,20.65405],[-156.44136,20.65282],[-156.44186,20.6509],[-156.44279,20.64734],[-156.44643,20.64477],[-156.44664,20.64462],[-156.44667,20.6446],[-156.44746,20.63981],[-156.45067,20.63912],[-156.45372,20.63703],[-156.45224,20.63369],[-156.44611,20.62969],[-156.43926,20.62127],[-156.4369,20.614],[-156.44017,20.60946],[-156.4407,20.60429],[-156.43729,20.60076],[-156.4369,20.59974],[-156.43552,20.59825],[-156.42642,20.59447],[-156.42483,20.59567],[-156.42287,20.59616],[-156.42166,20.59897],[-156.42028,20.59918],[-156.41715,20.59721],[-156.41409,20.59474],[-156.41271,20.59059],[-156.41421,20.5864],[-156.4123,20.5829],[-156.40362,20.58323],[-156.40223,20.58018],[-156.39927,20.58014],[-156.39857,20.58199],[-156.39757,20.58202],[-156.39602,20.58037],[-156.38672,20.57951],[-156.38379,20.58082],[-156.38204,20.57884],[-156.37831,20.57772],[-156.37379,20.57492],[-156.3678,20.57574],[-156.36508,20.57754],[-156.35756,20.57842],[-156.35466,20.58038],[-156.35025,20.58053],[-156.34865,20.58351],[-156.34154,20.58311],[-156.33967,20.58042],[-156.33572,20.58097],[-156.33244,20.58356],[-156.32304,20.58502],[-156.31439,20.58442],[-156.30495,20.58377],[-156.29961,20.58308],[-156.29076,20.58548],[-156.28656,20.58783],[-156.28324,20.59177],[-156.28189,20.59217],[-156.27724,20.59357],[-156.26458,20.59867],[-156.26233,20.59803],[-156.26163,20.59783],[-156.25871,20.59972],[-156.25731,20.60063],[-156.25718,20.60071],[-156.25209,20.60386],[-156.24875,20.60593],[-156.24612,20.60552],[-156.24388,20.60821],[-156.24365,20.60832],[-156.23824,20.61083],[-156.23499,20.61097],[-156.2341,20.611],[-156.23182,20.6123],[-156.22744,20.6148],[-156.22279,20.61899],[-156.21903,20.62064],[-156.21331,20.62315],[-156.20534,20.62546],[-156.19131,20.6285],[-156.18678,20.62693],[-156.17873,20.627],[-156.17693,20.62256],[-156.17052,20.62109],[-156.1667,20.6247],[-156.16351,20.6219],[-156.15439,20.62632],[-156.14459,20.62403],[-156.13903,20.61812],[-156.13579,20.62009],[-156.13404,20.62368],[-156.12801,20.62309],[-156.12386,20.63006],[-156.11925,20.63017],[-156.1123,20.63506],[-156.11075,20.6397],[-156.10409,20.64103],[-156.09371,20.64176],[-156.08477,20.64676],[-156.07874,20.6511],[-156.07267,20.64787],[-156.06468,20.64653],[-156.0554,20.65046],[-156.04988,20.65056],[-156.04662,20.6526],[-156.04039,20.66105],[-156.04081,20.66725],[-156.03731,20.67],[-156.03426,20.67352],[-156.0314,20.67504],[-156.02851,20.67929],[-156.02533,20.68],[-156.02054,20.68126],[-156.01692,20.6838],[-156.0128,20.68212],[-156.00538,20.68816],[-155.99859,20.69491],[-155.99683,20.70021],[-155.99353,20.70544],[-155.98763,20.70819],[-155.98776,20.71637],[-155.98335,20.72175],[-155.98319,20.72703],[-155.98572,20.73142],[-155.98407,20.73374],[-155.98297,20.74102],[-155.98285,20.74181],[-155.98285,20.75008],[-155.98131,20.75192],[-155.97927,20.7531],[-155.97905,20.75592],[-155.97972,20.75715],[-155.98197,20.75591],[-155.98386,20.75578],[-155.98464,20.75741],[-155.9864,20.75985],[-155.9855,20.76242],[-155.98318,20.76298],[-155.98022,20.76361],[-155.97895,20.76461],[-155.97981,20.76591],[-155.98115,20.76579],[-155.98354,20.76636],[-155.98441,20.76776],[-155.98511,20.77355],[-155.98794,20.77655],[-155.99675,20.78507],[-156.00043,20.78606],[-156.00047,20.79094],[-156.00048,20.79147],[-156.00967,20.79689],[-156.01404,20.79683],[-156.01899,20.79905],[-156.02223,20.80157],[-156.03626,20.80551],[-156.03862,20.80617],[-156.0404,20.80485],[-156.04443,20.8052],[-156.04855,20.80729],[-156.05115,20.80646],[-156.0569,20.80708],[-156.06096,20.81092],[-156.06343,20.81184],[-156.06586,20.81615],[-156.07226,20.81862],[-156.08766,20.82826],[-156.09747,20.82506],[-156.10362,20.82476],[-156.10666,20.82303],[-156.11609,20.82663],[-156.11541,20.83046],[-156.12116,20.83805],[-156.12739,20.84108],[-156.12756,20.84252],[-156.12825,20.84816],[-156.12905,20.85471],[-156.12931,20.85566],[-156.12954,20.8565],[-156.13036,20.85945],[-156.1442,20.85811],[-156.14426,20.86529],[-156.14692,20.86518],[-156.15235,20.8598],[-156.15591,20.85952],[-156.15823,20.86204],[-156.16154,20.86334],[-156.16675,20.86565],[-156.16684,20.87129],[-156.17445,20.87684],[-156.18142,20.87951],[-156.1858,20.88447],[-156.19113,20.88763],[-156.1928,20.8897],[-156.19204,20.89178],[-156.19337,20.89324],[-156.19427,20.89423],[-156.19846,20.89506],[-156.2029,20.89795],[-156.2098,20.90314],[-156.21215,20.9037],[-156.21222,20.90497],[-156.21422,20.9056],[-156.21372,20.90786],[-156.21447,20.90916],[-156.21419,20.91313],[-156.21971,20.91539],[-156.22481,20.91403],[-156.22752,20.91576],[-156.22608,20.92123],[-156.22741,20.92866],[-156.23196,20.92857],[-156.23529,20.93102],[-156.24028,20.9359],[-156.25236,20.93797],[-156.25364,20.93471],[-156.25562,20.93416],[-156.25573,20.93413],[-156.2625,20.93962],[-156.26879,20.93481],[-156.27161,20.93471],[-156.27356,20.93464],[-156.27512,20.93736],[-156.27906,20.94311],[-156.28214,20.94557],[-156.29623,20.94273],[-156.30145,20.94121],[-156.30703,20.93975],[-156.31499,20.94504],[-156.32176,20.9471],[-156.32503,20.94362],[-156.32873,20.94473],[-156.33337,20.94233],[-156.3367,20.93866],[-156.34117,20.93878],[-156.3413,20.93879],[-156.3493,20.93855],[-156.35561,20.93576],[-156.36308,20.93226],[-156.36933,20.92934],[-156.37362,20.92369],[-156.37805,20.9211],[-156.38123,20.91923],[-156.3837,20.91598],[-156.3933,20.91507],[-156.39348,20.91496],[-156.39683,20.91314],[-156.40475,20.91236],[-156.41165,20.9097],[-156.41883,20.90825],[-156.42174,20.91032],[-156.42532,20.9098],[-156.43084,20.90686],[-156.43689,20.90333],[-156.44691,20.89848],[-156.44977,20.8971],[-156.45839,20.89745],[-156.46072,20.89773],[-156.46797,20.89861],[-156.47147,20.90072],[-156.47424,20.90039],[-156.47969,20.89807],[-156.48043,20.89984],[-156.48086,20.90086],[-156.4809,20.90149],[-156.48112,20.90486],[-156.48486,20.91019],[-156.48537,20.91091],[-156.48747,20.90948],[-156.49177,20.91537],[-156.49166,20.91624],[-156.49146,20.91782],[-156.4915,20.918],[-156.49251,20.9228],[-156.49642,20.93087],[-156.50424,20.93442],[-156.50726,20.93685],[-156.50787,20.93988],[-156.50844,20.94739],[-156.50935,20.94796],[-156.51598,20.95211],[-156.51813,20.95654],[-156.52093,20.96192],[-156.52516,20.96426],[-156.52568,20.97252],[-156.52501,20.98108],[-156.5254,20.98731],[-156.53098,20.98464],[-156.53569,20.98497],[-156.53813,20.98925],[-156.5412,20.99592],[-156.54367,21.0013],[-156.54567,21.00231],[-156.5495,20.99827],[-156.55212,21.00071],[-156.55495,21.00863],[-156.56013,21.01388],[-156.56568,21.01185],[-156.56934,21.01594],[-156.57337,21.01787],[-156.5787,21.01686],[-156.58347,21.0186],[-156.58426,21.02111],[-156.58444,21.02167],[-156.58821,21.02421],[-156.58853,21.03082],[-156.5925,21.02897],[-156.5937,21.03095],[-156.60332,21.03119],[-156.60811,21.02469],[-156.61339,21.02332],[-156.61604,21.02451],[-156.6187,21.02434],[-156.62495,21.02181],[-156.63405,21.02514],[-156.64108,21.02328],[-156.6411,21.01885],[-156.63756,21.01495],[-156.63778,21.01303],[-156.63843,21.01283],[-156.64538,21.01072],[-156.64636,21.00939],[-156.64656,21.00912],[-156.64687,21.0087],[-156.64933,21.00536],[-156.64947,21.00517],[-156.6535,21.0045],[-156.65555,21.00571],[-156.65938,21.00374],[-156.66573,21.00379],[-156.6668,20.99862],[-156.66621,20.99621],[-156.66721,20.99431],[-156.66841,20.99202],[-156.66906,20.99079],[-156.67335,20.9826],[-156.67695,20.97742],[-156.67733,20.97687],[-156.67931,20.97402],[-156.67992,20.97315],[-156.6841,20.96378],[-156.68648,20.95605],[-156.68697,20.9555],[-156.68878,20.95344],[-156.69017,20.95094],[-156.69037,20.95057],[-156.69229,20.9471],[-156.69271,20.94049],[-156.69318,20.93311],[-156.69512,20.92883],[-156.69544,20.92813],[-156.69572,20.92647],[-156.69742,20.91637]]],[[[-156.7,20.52792],[-156.70099,20.52482],[-156.69783,20.52197],[-156.69603,20.52247],[-156.69456,20.51903],[-156.6917,20.51646],[-156.68872,20.51646],[-156.68522,20.51531],[-156.6832,20.5122],[-156.68585,20.50843],[-156.68294,20.50677],[-156.68235,20.50514],[-156.67953,20.50339],[-156.67692,20.50402],[-156.67261,20.50101],[-156.67053,20.50321],[-156.6689,20.50389],[-156.66631,20.50091],[-156.66343,20.5013],[-156.66225,20.50363],[-156.65639,20.50546],[-156.65421,20.50785],[-156.65217,20.5108],[-156.65093,20.51111],[-156.6485,20.51447],[-156.6461,20.51591],[-156.64537,20.51272],[-156.64416,20.51094],[-156.64459,20.50927],[-156.6436,20.5073],[-156.64029,20.50501],[-156.63082,20.51044],[-156.62223,20.51393],[-156.61062,20.51649],[-156.60916,20.51299],[-156.60333,20.51574],[-156.59295,20.51528],[-156.59106,20.51201],[-156.58734,20.50842],[-156.58389,20.50801],[-156.58338,20.5095],[-156.57877,20.51135],[-156.57393,20.51112],[-156.57331,20.51337],[-156.57093,20.51498],[-156.56735,20.51611],[-156.56255,20.51496],[-156.55934,20.51541],[-156.55733,20.51834],[-156.55327,20.51747],[-156.55027,20.51553],[-156.54815,20.51252],[-156.5452,20.51203],[-156.54101,20.51602],[-156.54127,20.52016],[-156.53908,20.52189],[-156.53429,20.52512],[-156.53179,20.52826],[-156.53358,20.53443],[-156.53933,20.53402],[-156.54098,20.53569],[-156.54363,20.53737],[-156.55072,20.53421],[-156.55404,20.53688],[-156.55403,20.54049],[-156.55197,20.54374],[-156.55331,20.54552],[-156.54786,20.55211],[-156.54671,20.55982],[-156.54799,20.56488],[-156.53797,20.56858],[-156.53879,20.57273],[-156.53903,20.57618],[-156.54972,20.58936],[-156.5536,20.59473],[-156.56233,20.59859],[-156.565,20.60201],[-156.5684,20.60309],[-156.5753,20.60341],[-156.57992,20.60273],[-156.58811,20.60015],[-156.59709,20.59613],[-156.60873,20.59012],[-156.61124,20.58829],[-156.61378,20.58419],[-156.62147,20.58076],[-156.62396,20.57943],[-156.63238,20.57253],[-156.63608,20.57136],[-156.64194,20.56707],[-156.64564,20.5635],[-156.65061,20.56237],[-156.65989,20.56092],[-156.66568,20.55799],[-156.67335,20.55666],[-156.67746,20.55498],[-156.67873,20.55156],[-156.68056,20.54942],[-156.68421,20.54707],[-156.68733,20.54444],[-156.68769,20.54255],[-156.69382,20.53846],[-156.69834,20.53302],[-156.7,20.52792]]],[[[-157.06024,20.90192],[-157.06113,20.89064],[-157.05826,20.88355],[-157.05424,20.879],[-157.05455,20.87722],[-157.05315,20.87567],[-157.05152,20.87286],[-157.04967,20.8702],[-157.04604,20.87008],[-157.04222,20.86688],[-157.04007,20.86772],[-157.03789,20.86629],[-157.03744,20.86444],[-157.03536,20.86288],[-157.03185,20.86326],[-157.0112,20.85401],[-157.00624,20.8496],[-157.00592,20.84721],[-157.00251,20.84346],[-156.99183,20.8266],[-156.9879,20.8174],[-156.98814,20.80698],[-156.98998,20.80045],[-156.98814,20.79716],[-156.99025,20.79646],[-156.99045,20.79356],[-156.99005,20.79114],[-156.99223,20.78717],[-156.99152,20.77987],[-156.98936,20.77929],[-156.98193,20.75352],[-156.97678,20.74742],[-156.97305,20.74518],[-156.96628,20.73662],[-156.9664,20.73336],[-156.96334,20.73193],[-156.95915,20.73323],[-156.95583,20.73444],[-156.94559,20.73576],[-156.93799,20.73647],[-156.93472,20.73413],[-156.93045,20.73613],[-156.9216,20.73476],[-156.91854,20.7374],[-156.91695,20.73732],[-156.91352,20.73714],[-156.91061,20.73655],[-156.90763,20.73593],[-156.90692,20.73579],[-156.9044,20.73644],[-156.90126,20.73726],[-156.89794,20.73993],[-156.89782,20.74002],[-156.89402,20.73936],[-156.8931,20.73568],[-156.89038,20.73502],[-156.88737,20.7394],[-156.88756,20.74186],[-156.8876,20.74247],[-156.88585,20.74383],[-156.88475,20.74469],[-156.88419,20.74434],[-156.88053,20.74205],[-156.8767,20.74353],[-156.87184,20.74639],[-156.86655,20.75164],[-156.8572,20.75461],[-156.8519,20.7579],[-156.8476,20.75723],[-156.84268,20.75756],[-156.83687,20.76029],[-156.83242,20.76589],[-156.82985,20.76692],[-156.82839,20.77055],[-156.82192,20.78303],[-156.81415,20.79177],[-156.80623,20.8066],[-156.80591,20.82167],[-156.80954,20.82779],[-156.81204,20.83035],[-156.82144,20.84684],[-156.82524,20.85073],[-156.82882,20.85588],[-156.83705,20.86357],[-156.8697,20.89293],[-156.88254,20.90446],[-156.88476,20.90439],[-156.89329,20.91169],[-156.90039,20.9149],[-156.91529,20.91965],[-156.92317,20.91996],[-156.93739,20.92342],[-156.94239,20.92215],[-156.95225,20.92285],[-156.96841,20.92329],[-156.97768,20.92618],[-156.98695,20.92884],[-156.99337,20.92773],[-157.00145,20.92773],[-157.00739,20.9264],[-157.02173,20.92604],[-157.03547,20.92242],[-157.04803,20.91462],[-157.05205,20.91394],[-157.05636,20.91046],[-157.06024,20.90192]]],[[[-157.30647,21.10819],[-157.31075,21.10163],[-157.30409,21.09517],[-157.29884,21.09337],[-157.28738,21.09336],[-157.28358,21.09304],[-157.27835,21.09164],[-157.27407,21.09148],[-157.25253,21.08767],[-157.2497,21.0848],[-157.24241,21.08804],[-157.21608,21.08999],[-157.20256,21.08977],[-157.18677,21.09165],[-157.18399,21.09098],[-157.1785,21.09101],[-157.17448,21.09238],[-157.16878,21.09251],[-157.15737,21.09277],[-157.14906,21.09154],[-157.14628,21.09301],[-157.13843,21.09387],[-157.12682,21.09784],[-157.11731,21.09884],[-157.11271,21.10075],[-157.10539,21.10165],[-157.10188,21.10066],[-157.1011,21.10044],[-157.09558,21.10358],[-157.09198,21.10216],[-157.09183,21.10216],[-157.08066,21.10198],[-157.07109,21.09912],[-157.06687,21.1005],[-157.06628,21.10041],[-157.05977,21.09944],[-157.04852,21.09582],[-157.04128,21.09602],[-157.04094,21.09603],[-157.03779,21.09523],[-157.03511,21.09456],[-157.03403,21.09428],[-157.02943,21.08779],[-157.02814,21.08775],[-157.02665,21.08771],[-157.02349,21.08572],[-157.01868,21.08542],[-157.01314,21.08334],[-157.00951,21.08198],[-157.00763,21.08128],[-157.00464,21.08043],[-157.00325,21.08004],[-157.00288,21.07821],[-157.00052,21.07675],[-156.99867,21.07774],[-156.99799,21.0781],[-156.99555,21.07814],[-156.99468,21.07815],[-156.9923,21.07818],[-156.98945,21.07682],[-156.98927,21.07674],[-156.98816,21.0762],[-156.98704,21.07567],[-156.98437,21.07439],[-156.98247,21.07348],[-156.98095,21.07044],[-156.9777,21.07062],[-156.97233,21.0709],[-156.96563,21.06819],[-156.95387,21.06613],[-156.94853,21.06339],[-156.9427,21.06291],[-156.93486,21.0608],[-156.93118,21.06045],[-156.92081,21.05949],[-156.91428,21.0567],[-156.90046,21.05445],[-156.89649,21.05544],[-156.89517,21.05577],[-156.89291,21.053],[-156.89259,21.04934],[-156.8867,21.04882],[-156.88376,21.04712],[-156.8745,21.04548],[-156.87308,21.04866],[-156.86954,21.04947],[-156.86574,21.04956],[-156.86051,21.052],[-156.85775,21.05573],[-156.85124,21.0571],[-156.84839,21.05488],[-156.84908,21.05101],[-156.84587,21.0529],[-156.84366,21.0542],[-156.83601,21.05392],[-156.83318,21.05732],[-156.82678,21.06067],[-156.82177,21.06065],[-156.81893,21.06352],[-156.81858,21.06387],[-156.81706,21.06542],[-156.81153,21.06604],[-156.8022,21.06709],[-156.79707,21.07095],[-156.79087,21.07218],[-156.78712,21.07904],[-156.78159,21.08196],[-156.77494,21.08216],[-156.77409,21.08535],[-156.76559,21.09214],[-156.75798,21.09656],[-156.74477,21.1069],[-156.74341,21.11086],[-156.73934,21.11134],[-156.73596,21.1141],[-156.73007,21.12404],[-156.72289,21.12895],[-156.71602,21.14095],[-156.71243,21.14403],[-156.71113,21.15288],[-156.70911,21.15865],[-156.71708,21.1605],[-156.72865,21.15754],[-156.73166,21.15925],[-156.73573,21.15954],[-156.73501,21.16885],[-156.73905,21.17351],[-156.75654,21.17441],[-156.75918,21.17455],[-156.77016,21.17622],[-156.77302,21.17372],[-156.77685,21.17484],[-156.77965,21.17311],[-156.7843,21.17408],[-156.78754,21.17107],[-156.79039,21.16841],[-156.7961,21.16885],[-156.79896,21.17336],[-156.80387,21.17522],[-156.81034,21.17299],[-156.81919,21.17138],[-156.8242,21.16806],[-156.82716,21.16836],[-156.83066,21.16412],[-156.83795,21.16449],[-156.84265,21.16683],[-156.84835,21.16588],[-156.85014,21.16441],[-156.85606,21.16354],[-156.86586,21.16139],[-156.86794,21.16452],[-156.87643,21.16597],[-156.87928,21.16109],[-156.88333,21.16176],[-156.88404,21.16619],[-156.88499,21.16863],[-156.89212,21.16863],[-156.89616,21.16331],[-156.90139,21.16198],[-156.90347,21.16421],[-156.90817,21.16422],[-156.91355,21.16591],[-156.91424,21.16912],[-156.91507,21.17115],[-156.91809,21.16857],[-156.92081,21.16283],[-156.9171,21.16371],[-156.91333,21.15973],[-156.9126,21.15815],[-156.90883,21.15542],[-156.90864,21.15415],[-156.90704,21.1526],[-156.90695,21.15162],[-156.90552,21.15184],[-156.90147,21.14879],[-156.89832,21.14836],[-156.89603,21.14899],[-156.89636,21.14812],[-156.89888,21.1476],[-156.90028,21.14542],[-156.90049,21.14297],[-156.89921,21.1421],[-156.89894,21.14083],[-156.9008,21.13908],[-156.90166,21.13328],[-156.90024,21.13162],[-156.91494,21.12967],[-156.91807,21.12948],[-156.91968,21.13007],[-156.92258,21.1321],[-156.92532,21.13586],[-156.9288,21.13821],[-156.92984,21.13962],[-156.92988,21.14152],[-156.93468,21.14936],[-156.93508,21.15078],[-156.9361,21.15112],[-156.93694,21.15335],[-156.93918,21.15545],[-156.94163,21.15621],[-156.94157,21.15963],[-156.94213,21.16017],[-156.94499,21.15848],[-156.94416,21.15767],[-156.94667,21.15698],[-156.94794,21.1558],[-156.94766,21.1548],[-156.95104,21.15346],[-156.95612,21.1567],[-156.9576,21.15804],[-156.95893,21.16095],[-156.95863,21.16336],[-156.95917,21.16703],[-156.95874,21.16922],[-156.95933,21.17215],[-156.95871,21.17455],[-156.96067,21.17936],[-156.963,21.18002],[-156.96307,21.179],[-156.96164,21.17606],[-156.96249,21.17522],[-156.96301,21.17204],[-156.9626,21.17109],[-156.96367,21.16645],[-156.96475,21.16567],[-156.96233,21.16326],[-156.9626,21.1623],[-156.95985,21.16153],[-156.96171,21.16054],[-156.96251,21.15937],[-156.96452,21.15935],[-156.96505,21.15985],[-156.96562,21.16051],[-156.96751,21.16209],[-156.96752,21.1619],[-156.96819,21.16264],[-156.96872,21.16326],[-156.96922,21.16365],[-156.96963,21.16414],[-156.97163,21.16566],[-156.97142,21.1689],[-156.97371,21.17376],[-156.9739,21.17537],[-156.97745,21.17688],[-156.97933,21.1781],[-156.9808,21.1779],[-156.98402,21.17919],[-156.98667,21.17854],[-156.98877,21.17852],[-156.99293,21.17769],[-156.99545,21.17827],[-157,21.17785],[-157.00412,21.17851],[-157.00269,21.17693],[-157.00286,21.17612],[-157.00347,21.1771],[-157.00541,21.17797],[-157.00613,21.17914],[-157.00795,21.18003],[-157.01094,21.18081],[-157.01195,21.1816],[-157.01461,21.18235],[-157.01459,21.18352],[-157.0159,21.18385],[-157.02569,21.18615],[-157.03503,21.18752],[-157.0432,21.18829],[-157.04992,21.18583],[-157.06007,21.18578],[-157.06515,21.18858],[-157.0665,21.18858],[-157.07378,21.1886],[-157.08205,21.19081],[-157.09274,21.19485],[-157.0943,21.19508],[-157.1016,21.19615],[-157.1017,21.19613],[-157.10704,21.19518],[-157.10712,21.19518],[-157.11185,21.19519],[-157.11243,21.19519],[-157.11844,21.19743],[-157.12135,21.19681],[-157.12981,21.19953],[-157.13331,21.19936],[-157.136,21.19923],[-157.13623,21.19922],[-157.14302,21.1994],[-157.14313,21.19722],[-157.1469,21.19754],[-157.15143,21.19788],[-157.15452,21.19766],[-157.15642,21.19877],[-157.15713,21.20158],[-157.16164,21.20176],[-157.17117,21.20132],[-157.17856,21.20328],[-157.18087,21.20281],[-157.18679,21.20333],[-157.19244,21.20764],[-157.19647,21.21423],[-157.20049,21.21713],[-157.20296,21.2153],[-157.21208,21.22185],[-157.21559,21.21805],[-157.22107,21.21741],[-157.23213,21.21811],[-157.23883,21.21783],[-157.24402,21.21963],[-157.24599,21.22107],[-157.25391,21.22407],[-157.2541,21.22415],[-157.25752,21.22239],[-157.26029,21.21916],[-157.25891,21.21541],[-157.2561,21.213],[-157.25026,21.20774],[-157.24765,21.19677],[-157.24956,21.19149],[-157.24831,21.18872],[-157.2497,21.1844],[-157.25244,21.18234],[-157.25137,21.17782],[-157.25672,21.17107],[-157.26985,21.16043],[-157.27338,21.15975],[-157.27722,21.15843],[-157.28302,21.15275],[-157.28844,21.14683],[-157.29106,21.14302],[-157.29072,21.13892],[-157.29237,21.13585],[-157.29674,21.13305],[-157.29846,21.12806],[-157.30057,21.12403],[-157.29875,21.12075],[-157.30089,21.11464],[-157.30647,21.10819]]]]}},{"type":"Feature","properties":{"GEOID":"15001","NAME":"Hawaii County"},"geometry":{"type":"Polygon","coordinates":[[[-156.06076,19.73055],[-156.06151,19.72801],[-156.05248,19.71867],[-156.04947,19.71437],[-156.04906,19.70442],[-156.04859,19.70206],[-156.0481,19.69963],[-156.04796,19.69894],[-156.04507,19.69408],[-156.04436,19.69288],[-156.03913,19.69249],[-156.03608,19.69025],[-156.03599,19.6901],[-156.0342,19.68712],[-156.0351,19.6841],[-156.03242,19.67958],[-156.02684,19.6762],[-156.02743,19.67215],[-156.02784,19.6689],[-156.0279,19.66839],[-156.03099,19.66705],[-156.03114,19.66028],[-156.03244,19.656],[-156.02898,19.6501],[-156.02402,19.64737],[-156.01671,19.64757],[-156.01427,19.64511],[-156.00224,19.63809],[-156.00079,19.63724],[-155.99655,19.63882],[-155.99566,19.63914],[-155.99417,19.63812],[-155.99288,19.63724],[-155.9913,19.63616],[-155.99131,19.63225],[-155.98721,19.62587],[-155.98681,19.62526],[-155.98556,19.62331],[-155.98698,19.62075],[-155.98591,19.61693],[-155.97886,19.60933],[-155.97511,19.60529],[-155.97379,19.60386],[-155.97434,19.60304],[-155.97643,19.59995],[-155.97591,19.59933],[-155.97522,19.5985],[-155.97198,19.59459],[-155.97139,19.58764],[-155.97102,19.5871],[-155.96642,19.58052],[-155.968,19.57768],[-155.96791,19.56824],[-155.96398,19.56228],[-155.96395,19.56042],[-155.96394,19.55997],[-155.96553,19.55894],[-155.96668,19.55398],[-155.96457,19.55189],[-155.96117,19.55085],[-155.95586,19.53263],[-155.95591,19.52905],[-155.95597,19.52515],[-155.96021,19.52016],[-155.96017,19.515],[-155.95755,19.51411],[-155.95185,19.50492],[-155.9482,19.49547],[-155.95043,19.48665],[-155.94652,19.48316],[-155.94104,19.48308],[-155.93725,19.47907],[-155.93379,19.47911],[-155.93376,19.47931],[-155.93331,19.48252],[-155.92998,19.48296],[-155.92412,19.48141],[-155.92261,19.47861],[-155.91976,19.47535],[-155.92142,19.47154],[-155.92249,19.46541],[-155.92777,19.45881],[-155.92192,19.45318],[-155.92226,19.44915],[-155.92024,19.44576],[-155.92142,19.4359],[-155.91977,19.43043],[-155.91719,19.42604],[-155.91311,19.42537],[-155.91215,19.42357],[-155.91357,19.42153],[-155.91435,19.42042],[-155.90962,19.41596],[-155.90909,19.41546],[-155.905,19.41046],[-155.90488,19.41031],[-155.91042,19.39993],[-155.91086,19.39651],[-155.89879,19.37798],[-155.89054,19.35585],[-155.88672,19.34555],[-155.88524,19.33882],[-155.88518,19.3294],[-155.88966,19.32422],[-155.89067,19.31854],[-155.88769,19.31325],[-155.88778,19.30679],[-155.89005,19.30069],[-155.88833,19.29655],[-155.88967,19.29354],[-155.8887,19.28904],[-155.89129,19.28453],[-155.89154,19.27649],[-155.89581,19.26279],[-155.89936,19.25658],[-155.90063,19.24746],[-155.89729,19.24022],[-155.90072,19.23239],[-155.90221,19.22309],[-155.90118,19.21542],[-155.89928,19.21028],[-155.90564,19.20256],[-155.90804,19.18673],[-155.91049,19.18131],[-155.90775,19.17679],[-155.90828,19.1719],[-155.90863,19.16859],[-155.91205,19.16556],[-155.91643,19.15662],[-155.91463,19.15267],[-155.91025,19.15123],[-155.91118,19.14606],[-155.91424,19.13994],[-155.91818,19.13437],[-155.91693,19.12764],[-155.91829,19.1148],[-155.91107,19.09606],[-155.90769,19.08397],[-155.90729,19.08218],[-155.90678,19.07989],[-155.9036,19.07757],[-155.89724,19.07101],[-155.8901,19.0602],[-155.88628,19.05576],[-155.88329,19.05207],[-155.88144,19.04657],[-155.88155,19.03664],[-155.87959,19.03353],[-155.86705,19.02978],[-155.86105,19.02466],[-155.85444,19.02286],[-155.85045,19.0194],[-155.84392,19.0196],[-155.8352,19.01833],[-155.82744,19.01608],[-155.80731,19.01025],[-155.80101,19.01011],[-155.78973,18.99925],[-155.78587,18.99803],[-155.77559,18.98994],[-155.76311,18.98301],[-155.75919,18.97726],[-155.75474,18.97621],[-155.74132,18.97015],[-155.73484,18.96996],[-155.72905,18.96757],[-155.72361,18.96644],[-155.71922,18.96102],[-155.71485,18.9603],[-155.70731,18.95415],[-155.70572,18.95019],[-155.7013,18.94772],[-155.6969,18.9463],[-155.68808,18.9395],[-155.68398,18.93419],[-155.68287,18.92457],[-155.68402,18.91793],[-155.68337,18.9139],[-155.68279,18.91036],[-155.68096,18.9106],[-155.67861,18.91091],[-155.67758,18.91105],[-155.67742,18.91109],[-155.67307,18.9122],[-155.66982,18.91566],[-155.66905,18.91647],[-155.66383,18.91755],[-155.66127,18.91893],[-155.65758,18.92093],[-155.65477,18.92245],[-155.65277,18.92432],[-155.65124,18.92575],[-155.6496,18.92728],[-155.64599,18.93323],[-155.64339,18.93509],[-155.63811,18.93625],[-155.63539,18.93881],[-155.63264,18.94139],[-155.63252,18.94257],[-155.63225,18.94521],[-155.63183,18.94547],[-155.62742,18.94812],[-155.62734,18.94826],[-155.62627,18.95028],[-155.62317,18.95612],[-155.62247,18.95745],[-155.62237,18.95764],[-155.62175,18.96271],[-155.61957,18.96769],[-155.61292,18.96881],[-155.60951,18.96603],[-155.60612,18.96886],[-155.59919,18.9684],[-155.59699,18.97466],[-155.59376,18.97778],[-155.59373,18.99525],[-155.59029,18.9991],[-155.5849,19.00422],[-155.58002,19.01805],[-155.57584,19.02365],[-155.56873,19.02609],[-155.56515,19.02873],[-155.55851,19.03748],[-155.55389,19.04552],[-155.55176,19.05174],[-155.55293,19.06474],[-155.55336,19.07286],[-155.55492,19.07779],[-155.55303,19.08033],[-155.54922,19.08543],[-155.54288,19.08581],[-155.54154,19.0905],[-155.53296,19.10265],[-155.52585,19.11147],[-155.52254,19.1132],[-155.51737,19.11328],[-155.51474,19.11866],[-155.50967,19.12163],[-155.50999,19.129],[-155.50604,19.13161],[-155.5049,19.13239],[-155.50126,19.13486],[-155.49666,19.13611],[-155.48387,19.13833],[-155.47714,19.14172],[-155.46941,19.14454],[-155.46385,19.14399],[-155.45007,19.14905],[-155.44604,19.15259],[-155.44315,19.15773],[-155.43008,19.16719],[-155.42422,19.17618],[-155.41794,19.18038],[-155.41469,19.18475],[-155.4071,19.18732],[-155.40306,19.1871],[-155.39916,19.18833],[-155.39422,19.19456],[-155.38614,19.19864],[-155.37392,19.20001],[-155.35798,19.20654],[-155.34704,19.21455],[-155.34636,19.21754],[-155.34419,19.21966],[-155.34205,19.22543],[-155.33896,19.22899],[-155.33886,19.23108],[-155.33399,19.23494],[-155.31788,19.24246],[-155.31084,19.24749],[-155.30463,19.25533],[-155.29324,19.2639],[-155.28536,19.26537],[-155.27521,19.26615],[-155.26253,19.2712],[-155.25885,19.26934],[-155.25563,19.27053],[-155.2491,19.26786],[-155.24314,19.26868],[-155.2343,19.26579],[-155.2329,19.2626],[-155.22472,19.26025],[-155.22206,19.2607],[-155.20777,19.25646],[-155.20527,19.25749],[-155.19779,19.25808],[-155.19436,19.25739],[-155.19193,19.25612],[-155.18949,19.26027],[-155.18472,19.26326],[-155.17487,19.26408],[-155.16988,19.26547],[-155.16299,19.26435],[-155.1571,19.26527],[-155.14921,19.26922],[-155.14238,19.27332],[-155.13605,19.27362],[-155.12984,19.27399],[-155.12016,19.27944],[-155.1123,19.28592],[-155.09798,19.29494],[-155.08853,19.29761],[-155.07837,19.30563],[-155.07122,19.31166],[-155.06197,19.31124],[-155.04859,19.31427],[-155.04042,19.32054],[-155.01733,19.32782],[-155.0165,19.32852],[-155.01213,19.33218],[-155.00479,19.33326],[-154.98912,19.34121],[-154.98213,19.34475],[-154.97187,19.34994],[-154.96941,19.35403],[-154.9662,19.35764],[-154.9656,19.35832],[-154.96122,19.36206],[-154.9489,19.37262],[-154.93403,19.38418],[-154.92859,19.39484],[-154.92388,19.39466],[-154.90914,19.40654],[-154.88919,19.41557],[-154.88569,19.42283],[-154.87952,19.42562],[-154.8737,19.43178],[-154.87183,19.4327],[-154.86497,19.4361],[-154.83523,19.46168],[-154.8314,19.46826],[-154.82681,19.47123],[-154.82027,19.47887],[-154.81935,19.48166],[-154.81911,19.48631],[-154.81691,19.4891],[-154.81118,19.50657],[-154.8117,19.51209],[-154.80677,19.51604],[-154.80688,19.51814],[-154.80695,19.5195],[-154.80956,19.52238],[-154.81135,19.52678],[-154.81486,19.52932],[-154.82505,19.53488],[-154.83246,19.53506],[-154.83738,19.53835],[-154.8501,19.54646],[-154.86684,19.54905],[-154.87468,19.55599],[-154.8768,19.55596],[-154.87967,19.55591],[-154.88383,19.55718],[-154.88739,19.56126],[-154.88838,19.5624],[-154.89325,19.56444],[-154.89887,19.56679],[-154.90263,19.56836],[-154.90629,19.5719],[-154.912,19.57973],[-154.92163,19.58312],[-154.92602,19.5916],[-154.92966,19.59381],[-154.93276,19.59568],[-154.93352,19.5961],[-154.93957,19.59944],[-154.94619,19.6042],[-154.94689,19.6047],[-154.94711,19.60486],[-154.94715,19.60514],[-154.94785,19.60942],[-154.94801,19.61042],[-154.94826,19.61196],[-154.94525,19.61831],[-154.94517,19.62117],[-154.94517,19.62122],[-154.94942,19.62403],[-154.95444,19.62444],[-154.95636,19.62301],[-154.95941,19.6229],[-154.96393,19.6276],[-154.96752,19.62908],[-154.97182,19.63085],[-154.97523,19.63225],[-154.98088,19.63827],[-154.98247,19.64393],[-154.98164,19.64864],[-154.97903,19.6523],[-154.98297,19.6585],[-154.98263,19.67314],[-154.97902,19.68114],[-154.97807,19.68898],[-154.98116,19.69413],[-154.9842,19.70451],[-154.98717,19.70852],[-154.99054,19.71711],[-154.99246,19.72202],[-154.99303,19.72347],[-154.99666,19.72784],[-154.99728,19.72858],[-155.00128,19.73461],[-155.00352,19.73633],[-155.01468,19.73843],[-155.01583,19.73544],[-155.02109,19.73328],[-155.02513,19.73597],[-155.0287,19.73597],[-155.03108,19.73883],[-155.04106,19.73865],[-155.04437,19.7347],[-155.0461,19.73264],[-155.05366,19.73258],[-155.06078,19.72635],[-155.06397,19.72892],[-155.07029,19.72702],[-155.07053,19.72433],[-155.07122,19.7243],[-155.08194,19.72388],[-155.08313,19.72483],[-155.08665,19.72764],[-155.08704,19.72795],[-155.08712,19.72801],[-155.08992,19.7344],[-155.09002,19.73462],[-155.09004,19.74104],[-155.09073,19.75297],[-155.09041,19.75515],[-155.09039,19.75529],[-155.09021,19.75646],[-155.08885,19.76562],[-155.08913,19.76744],[-155.08953,19.76999],[-155.08741,19.77355],[-155.08681,19.77806],[-155.08609,19.78354],[-155.08946,19.78875],[-155.08998,19.79429],[-155.08779,19.79721],[-155.0865,19.80347],[-155.08931,19.80441],[-155.08994,19.80535],[-155.09264,19.80933],[-155.08741,19.81872],[-155.08229,19.83594],[-155.0843,19.84369],[-155.08075,19.84778],[-155.08316,19.85251],[-155.08322,19.85263],[-155.08335,19.85266],[-155.08669,19.85337],[-155.08754,19.8562],[-155.08757,19.8563],[-155.08837,19.85896],[-155.08852,19.85946],[-155.09271,19.86471],[-155.09306,19.86485],[-155.09735,19.86657],[-155.10508,19.86967],[-155.10512,19.86969],[-155.11053,19.8762],[-155.11046,19.87641],[-155.1097,19.8787],[-155.11189,19.8802],[-155.11619,19.88104],[-155.11903,19.88313],[-155.11995,19.88564],[-155.11899,19.88825],[-155.12542,19.90053],[-155.12734,19.89991],[-155.12861,19.90046],[-155.12866,19.90048],[-155.12836,19.90367],[-155.13307,19.90662],[-155.13504,19.90976],[-155.14147,19.91728],[-155.14557,19.91957],[-155.15063,19.92371],[-155.16334,19.93632],[-155.17564,19.94536],[-155.17726,19.94779],[-155.1886,19.95479],[-155.19615,19.95564],[-155.19689,19.96014],[-155.20167,19.96431],[-155.20182,19.96621],[-155.20316,19.96735],[-155.20564,19.96944],[-155.21315,19.97484],[-155.21351,19.97511],[-155.22416,19.98068],[-155.23074,19.98467],[-155.23833,19.9874],[-155.24068,19.99069],[-155.23999,19.99314],[-155.24116,19.99403],[-155.24155,19.99409],[-155.24222,19.99419],[-155.24803,19.99506],[-155.25147,20.00047],[-155.2516,20.00066],[-155.25654,20.00352],[-155.25894,20.00431],[-155.26067,20.00583],[-155.26189,20.00583],[-155.26232,20.00697],[-155.2687,20.0124],[-155.28028,20.01899],[-155.28464,20.01984],[-155.29096,20.02107],[-155.29851,20.02423],[-155.33021,20.03852],[-155.34077,20.0444],[-155.34548,20.0491],[-155.35076,20.04931],[-155.35454,20.0513],[-155.35487,20.05147],[-155.35535,20.05172],[-155.35874,20.0535],[-155.36225,20.05534],[-155.36692,20.05779],[-155.38212,20.06389],[-155.39021,20.06695],[-155.39853,20.07119],[-155.40206,20.07579],[-155.41255,20.08123],[-155.43511,20.09145],[-155.43782,20.09268],[-155.4649,20.10103],[-155.48077,20.10668],[-155.49684,20.11223],[-155.51679,20.11523],[-155.53145,20.12071],[-155.54887,20.12672],[-155.55611,20.12922],[-155.56657,20.12721],[-155.57767,20.12073],[-155.58559,20.11966],[-155.58907,20.11919],[-155.59803,20.12454],[-155.60222,20.12995],[-155.6078,20.13799],[-155.61339,20.13725],[-155.62076,20.14261],[-155.62766,20.14388],[-155.63431,20.1444],[-155.63861,20.14734],[-155.64018,20.15541],[-155.65165,20.16536],[-155.6645,20.17099],[-155.68525,20.17927],[-155.69881,20.18671],[-155.70585,20.19058],[-155.72492,20.20163],[-155.73413,20.21065],[-155.73136,20.21488],[-155.731,20.22003],[-155.737,20.22277],[-155.74423,20.22936],[-155.74887,20.23073],[-155.75302,20.23615],[-155.75719,20.23876],[-155.76218,20.23876],[-155.76288,20.23966],[-155.76479,20.2421],[-155.77129,20.24644],[-155.7743,20.24299],[-155.77591,20.24263],[-155.7764,20.24252],[-155.77879,20.24198],[-155.78177,20.24464],[-155.78747,20.24718],[-155.79016,20.24838],[-155.79231,20.24934],[-155.79758,20.24817],[-155.80089,20.25178],[-155.80685,20.25492],[-155.8073,20.2561],[-155.81045,20.25671],[-155.81521,20.25762],[-155.81729,20.2584],[-155.81757,20.25851],[-155.81867,20.25962],[-155.82299,20.25899],[-155.82533,20.25983],[-155.82773,20.2607],[-155.83056,20.2636],[-155.8338,20.26438],[-155.83704,20.26703],[-155.84754,20.26504],[-155.85071,20.26804],[-155.86072,20.26584],[-155.86821,20.26509],[-155.87655,20.26104],[-155.88258,20.25683],[-155.88627,20.25181],[-155.88758,20.25003],[-155.88817,20.24764],[-155.8892,20.2435],[-155.89228,20.24127],[-155.89938,20.23009],[-155.89887,20.22486],[-155.9028,20.21333],[-155.90136,20.2061],[-155.90437,20.19612],[-155.90184,20.1852],[-155.89992,20.17003],[-155.89508,20.14906],[-155.896,20.14342],[-155.89265,20.13808],[-155.89139,20.12551],[-155.88283,20.11177],[-155.88353,20.10619],[-155.87944,20.10297],[-155.87576,20.09509],[-155.87089,20.08652],[-155.86572,20.08052],[-155.8645,20.07643],[-155.86262,20.07516],[-155.8593,20.07449],[-155.85511,20.06759],[-155.85038,20.06251],[-155.84868,20.0609],[-155.84395,20.05646],[-155.8433,20.05317],[-155.83899,20.0502],[-155.83824,20.04727],[-155.83357,20.04183],[-155.82708,20.03426],[-155.82707,20.03425],[-155.82745,20.03254],[-155.82968,20.03147],[-155.8292,20.02932],[-155.82308,20.02763],[-155.82306,20.02494],[-155.82303,20.01902],[-155.825,20.01577],[-155.82592,20.01149],[-155.82839,20.00055],[-155.82719,19.99582],[-155.82664,19.99082],[-155.83108,19.98649],[-155.83195,19.98278],[-155.83199,19.98189],[-155.8324,19.97393],[-155.83673,19.97352],[-155.84196,19.97307],[-155.84742,19.96905],[-155.85289,19.96838],[-155.85896,19.96293],[-155.86299,19.95279],[-155.86325,19.95215],[-155.87119,19.94716],[-155.87428,19.94493],[-155.87834,19.94163],[-155.87785,19.93465],[-155.88197,19.93547],[-155.8864,19.93278],[-155.89068,19.92862],[-155.89134,19.9248],[-155.89052,19.91853],[-155.88823,19.91524],[-155.89085,19.91197],[-155.89853,19.90899],[-155.90115,19.90465],[-155.90095,19.90033],[-155.90594,19.897],[-155.90457,19.89369],[-155.90441,19.89329],[-155.90549,19.88826],[-155.9084,19.88516],[-155.91236,19.88407],[-155.91549,19.87525],[-155.91926,19.87456],[-155.92326,19.87049],[-155.92403,19.86546],[-155.9221,19.85717],[-155.93709,19.84957],[-155.94247,19.85029],[-155.9453,19.85344],[-155.94951,19.85297],[-155.96136,19.8523],[-155.97299,19.84803],[-155.97958,19.8432],[-155.98114,19.83943],[-155.98619,19.8349],[-155.98585,19.83208],[-155.98654,19.83106],[-155.98969,19.8304],[-155.99735,19.8254],[-155.99667,19.82172],[-155.99816,19.81861],[-156.00145,19.81781],[-156.00096,19.81469],[-156.00606,19.81361],[-156.0068,19.80992],[-156.01257,19.80609],[-156.02073,19.79653],[-156.02126,19.79591],[-156.0247,19.79557],[-156.02614,19.79272],[-156.02659,19.79257],[-156.03386,19.7901],[-156.03826,19.78724],[-156.03657,19.78357],[-156.03631,19.783],[-156.03677,19.7824],[-156.03792,19.78089],[-156.04066,19.7818],[-156.04681,19.77683],[-156.04925,19.7719],[-156.04948,19.76933],[-156.04949,19.76921],[-156.04963,19.76764],[-156.04988,19.76621],[-156.0502,19.76445],[-156.05045,19.76303],[-156.05069,19.76169],[-156.04941,19.75809],[-156.05069,19.75059],[-156.05452,19.7477],[-156.05309,19.7367],[-156.05666,19.73283],[-156.06076,19.73055]]]}}]}
